NORAD_CAT_ID,OBJECT_NAME,OBJECT_TYPE,EPOCH,MEAN_MOTION,ECCENTRICITY,INCLINATION,RA_OF_ASC_NODE,ARG_OF_PERICENTER,MEAN_ANOMALY,BSTAR,MEAN_MOTION_DOT,MEAN_MOTION_DDOT,TLE_LINE0,TLE_LINE1,TLE_LINE2,SEMIMAJOR_AXIS,PERIOD,APOGEE,PERIGEE,DECAYED
51973.0,STARLINK-3679,PAYLOAD,2022-06-11 06:00:00,15.08871083,0.0001735,53.2156,47.78,46.23,23.6798,-0.0014073,-0.00022635,0.0,0 STARLINK-3679,1 51973U 22025T   22162.25001157 -.00022635  00000-0 -14073-2 0  9997,2 51973  53.2156  47.7800 0001735  46.2300  23.6798 15.08871083 15851,6917.785,95.436,540.851,538.45,0.0
51973.0,STARLINK-3679,PAYLOAD,2022-06-11 22:00:00,15.08856073,0.0001774999999999,53.2159,44.7874,52.7528,40.3826,-0.00090602,-0.00014685,0.0,0 STARLINK-3679,1 51973U 22025T   22162.91667824 -.00014685  00000-0 -90602-3 0  9998,2 51973  53.2159  44.7874 0001775  52.7528  40.3826 15.08856073  1305,6917.831,95.437,540.924,538.4680000000002,0.0
51973.0,STARLINK-3679,PAYLOAD,2022-06-12 06:00:02,15.08871051,0.0001761999999999,53.2156,43.2909,50.0377,54.7524,-0.0026957,-0.00042971,0.0,0 STARLINK-3679,1 51973U 22025T   22163.25002315 -.00042971  00000-0 -26957-2 0  9994,2 51973  53.2156  43.2909 0001762  50.0377  54.7524 15.08871051 16015,6917.785,95.436,540.869,538.432,0.0
51973.0,STARLINK-3679,PAYLOAD,2022-06-12 14:00:01,15.08814547,0.0001530999999999,53.2157,41.7931,56.8021,59.5473,0.0023545,0.00037357,0.0,0 STARLINK-3679,1 51973U 22025T   22163.58334491  .00037357  00000-0  23545-2 0  9993,2 51973  53.2157  41.7931 0001531  56.8021  59.5473 15.08814547  1307,6917.958000000001,95.439,540.882,538.764,0.0
51973.0,STARLINK-3679,PAYLOAD,2022-06-12 22:00:00,15.08843459,0.0001679,53.2156,40.2985,52.4014,75.5317,-0.00059068,-9.677e-05,0.0,0 STARLINK-3679,1 51973U 22025T   22163.91667824 -.00009677  00000-0 -59068-3 0  9995,2 51973  53.2156  40.2985 0001679  52.4014  75.5317 15.08843459 16110,6917.87,95.437,540.896,538.573,0.0
51973.0,STARLINK-3679,PAYLOAD,2022-06-13 14:00:01,15.08857228,0.0001595999999999,53.2152,37.3041,60.0221,91.1243,-0.00033803,-5.666e-05,0.0,0 STARLINK-3679,1 51973U 22025T   22164.58334491 -.00005666  00000-0 -33803-3 0  9993,2 51973  53.2152  37.3041 0001596  60.0221  91.1243 15.08857228 16211,6917.828,95.436,540.797,538.589,0.0
51973.0,STARLINK-3679,PAYLOAD,2022-06-13 22:00:00,15.08860034,0.0001754999999999,53.215,35.8094,55.5477,107.2175,-0.0021105,-0.00033739,0.0,0 STARLINK-3679,1 51973U 22025T   22164.91667824 -.00033739  00000-0 -21105-2 0  9992,2 51973  53.2150  35.8094 0001755  55.5477 107.2175 15.08860034  1305,6917.819,95.436,540.898,538.47,0.0
51973.0,STARLINK-3679,PAYLOAD,2022-06-14 14:00:01,15.08836638,0.0001626,53.2146,32.8148,61.6763,124.2829,-0.00031705,-5.33e-05,0.0,0 STARLINK-3679,1 51973U 22025T   22165.58334491 -.00005330  00000-0 -31705-3 0  9991,2 51973  53.2146  32.8148 0001626  61.6763 124.2829 15.08836638  1308,6917.891,95.438,540.881,538.631,0.0
51973.0,STARLINK-3679,PAYLOAD,2022-06-14 22:00:00,15.08819404,0.0001846,53.2148,31.32,56.8362,140.7106,0.00031919,4.793e-05,0.0,0 STARLINK-3679,1 51973U 22025T   22165.91667824  .00004793  00000-0  31919-3 0  9994,2 51973  53.2148  31.3200 0001846  56.8362 140.7106 15.08819404 16419,6917.943,95.439,541.085,538.531,0.0
51973.0,STARLINK-3679,PAYLOAD,2022-06-15 14:00:01,15.08843168,0.0001694,53.2167,28.3252,62.234,158.4747,-0.00034871,-5.834e-05,0.0,0 STARLINK-3679,1 51973U 22025T   22166.58334491 -.00005834  00000-0 -34871-3 0  9998,2 51973  53.2167  28.3252 0001694  62.2340 158.4747 15.08843168  1304,6917.871,95.437,540.908,538.564,0.0
51973.0,STARLINK-3679,PAYLOAD,2022-06-15 22:00:00,15.08824405,0.0001808,53.2165,26.8305,54.5597,177.7512,0.00091104,0.00014235,0.0,0 STARLINK-3679,1 51973U 22025T   22166.91667824  .00014235  00000-0  91104-3 0  9999,2 51973  53.2165  26.8305 0001808  54.5597 177.7512 15.08824405  1306,6917.928000000001,95.439,541.044,538.5419999999998,0.0
51973.0,STARLINK-3679,PAYLOAD,2022-06-16 02:00:01,15.0881836,0.0001794,53.2165,26.0824,51.7656,6.3416,0.0036426,0.00058128,0.0,0 STARLINK-3679,1 51973U 22025T   22167.08334491  .00058128  00000-0  36426-2 0  9993,2 51973  53.2165  26.0824 0001794  51.7656   6.3416 15.08818360  1306,6917.946999999999,95.439,541.053,538.57,0.0
51973.0,STARLINK-3679,PAYLOAD,2022-06-19 14:00:01,15.08850343,0.0001608,53.2182,10.3682,59.3625,300.4412,-0.0014974,-0.00024047,0.0,0 STARLINK-3679,1 51973U 22025T   22170.58334491 -.00024047  00000-0 -14974-2 0  9991,2 51973  53.2182  10.3682 0001608  59.3625 300.4412 15.08850343  1308,6917.849,95.437,540.826,538.601,0.0
51973.0,STARLINK-3679,PAYLOAD,2022-06-19 22:00:00,15.08815341,0.0001811,53.218,8.8736,53.9321,317.4743,0.0018675,0.00029538,0.0,0 STARLINK-3679,1 51973U 22025T   22170.91667824  .00029538  00000-0  18675-2 0  9997,2 51973  53.2180   8.8736 0001811  53.9321 317.4743 15.08815341  1301,6917.956,95.439,541.0740000000002,538.568,0.0
51973.0,STARLINK-3679,PAYLOAD,2022-06-20 06:00:00,15.08848349,0.0001709,53.2177,7.3759,56.9464,326.0354,-0.0013872,-0.00022303,0.0,0 STARLINK-3679,1 51973U 22025T   22171.25001157 -.00022303  00000-0 -13872-2 0  9995,2 51973  53.2177   7.3759 0001709  56.9464 326.0354 15.08848349 17218,6917.855,95.437,540.9019999999998,538.538,0.0
51973.0,STARLINK-3679,PAYLOAD,2022-06-20 14:00:01,15.08837076,0.0001822,53.2177,5.8892,54.6292,339.9029,2.0441e-05,3.7e-07,0.0,0 STARLINK-3679,1 51973U 22025T   22171.58334491  .00000037  00000-0  20441-4 0  9991,2 51973  53.2177   5.8892 0001822  54.6292 339.9029 15.08837076  1309,6917.889,95.438,541.015,538.494,0.0
51973.0,STARLINK-3679,PAYLOAD,2022-06-20 22:00:00,15.08826895,0.0001712,53.2177,4.3848,53.6738,352.5155,0.00059484,9.188e-05,0.0,0 STARLINK-3679,1 51973U 22025T   22171.91667824  .00009188  00000-0  59484-3 0  9991,2 51973  53.2177   4.3848 0001712  53.6738 352.5155 15.08826895 17312,6917.92,95.438,540.97,538.601,0.0
51973.0,STARLINK-3679,PAYLOAD,2022-06-21 14:00:01,15.08864956,0.0001495,53.2174,1.3907,58.7815,10.573,-0.0032135,-0.00051103,0.0,0 STARLINK-3679,1 51973U 22025T   22172.58334491 -.00051103  00000-0 -32135-2 0  9995,2 51973  53.2174   1.3907 0001495  58.7815  10.5730 15.08864956  1304,6917.804,95.436,540.703,538.635,0.0
51973.0,STARLINK-3679,PAYLOAD,2022-06-21 22:00:00,15.08804287,0.0001774,53.2172,359.8961,55.2355,25.7152,0.0025802,0.00040975,0.0,0 STARLINK-3679,1 51973U 22025T   22172.91667824  .00040975  00000-0  25802-2 0  9997,2 51973  53.2172 359.8961 0001774  55.2355  25.7152 15.08804287  1301,6917.99,95.44,541.082,538.627,0.0
51973.0,STARLINK-3679,PAYLOAD,2022-06-22 00:00:02,15.08806157,0.0001768,53.2169,359.5218,53.5827,120.3227,0.0030019,0.00047767,0.0,0 STARLINK-3679,1 51973U 22025T   22173.00002315  .00047767  00000-0  30019-2 0  9998,2 51973  53.2169 359.5218 0001768  53.5827 120.3227 15.08806157 17486,6917.984,95.44,541.072,538.626,0.0
51973.0,STARLINK-3679,PAYLOAD,2022-06-22 14:00:01,15.08848941,0.0001696,53.217,356.9018,62.0041,42.0901,-0.00016263,-2.876e-05,0.0,0 STARLINK-3679,1 51973U 22025T   22173.58334491 -.00002876  00000-0 -16263-3 0  9994,2 51973  53.2170 356.9018 0001696  62.0041  42.0901 15.08848941  1300,6917.853,95.437,540.891,538.545,0.0
51973.0,STARLINK-3679,PAYLOAD,2022-06-22 16:00:00,15.08856763,0.0001718,53.217,356.5283,59.7386,137.2549,-0.0014939,-0.00023996,0.0,0 STARLINK-3679,1 51973U 22025T   22173.66667824 -.00023996  00000-0 -14939-2 0  9995,2 51973  53.2170 356.5283 0001718  59.7386 137.2549 15.08856763 17583,6917.829000000002,95.436,540.883,538.506,0.0
51973.0,STARLINK-3679,PAYLOAD,2022-06-22 22:00:00,15.08833737,0.0001758,53.217,355.4071,53.4707,62.232,-3.1793e-05,-7.94e-06,0.0,0 STARLINK-3679,1 51973U 22025T   22173.91667824 -.00000794  00000-0 -31793-4 0  9993,2 51973  53.2170 355.4071 0001758  53.4707  62.2320 15.08833737  1301,6917.9,95.438,540.981,538.548,0.0
51973.0,STARLINK-3679,PAYLOAD,2022-06-23 14:00:01,15.08844789,0.0001653,53.217,352.4127,59.1806,79.6815,-0.00054943,-9.023e-05,0.0,0 STARLINK-3679,1 51973U 22025T   22174.58334491 -.00009023  00000-0 -54943-3 0  9993,2 51973  53.2170 352.4127 0001653  59.1806  79.6815 15.08844789  1307,6917.866,95.437,540.874,538.587,0.0
51973.0,STARLINK-3679,PAYLOAD,2022-06-23 22:00:00,15.08828105,0.0001749,53.217,350.9179,50.7229,99.7422,0.0014165999999999,0.00022322,0.0,0 STARLINK-3679,1 51973U 22025T   22174.91667824  .00022322  00000-0  14166-2 0  9996,2 51973  53.2170 350.9179 0001749  50.7229  99.7422 15.08828105 17778,6917.917,95.438,540.992,538.572,0.0
51973.0,STARLINK-3679,PAYLOAD,2022-06-24 14:00:01,15.08842457,0.0001614,53.2173,347.9236,56.4087,117.2203,-0.00086292,-0.00013996,0.0,0 STARLINK-3679,1 51973U 22025T   22175.58334491 -.00013996  00000-0 -86292-3 0  9990,2 51973  53.2173 347.9236 0001614  56.4087 117.2203 15.08842457 17877,6917.873000000001,95.437,540.854,538.621,0.0
51973.0,STARLINK-3679,PAYLOAD,2022-06-24 22:00:01,15.08811394,0.0001743,53.2172,346.4286,48.9131,136.3768,0.0034743,0.00055397,0.0,0 STARLINK-3679,1 51973U 22025T   22175.91668981  .00055397  00000-0  34743-2 0  9993,2 51973  53.2172 346.4286 0001743  48.9131 136.3768 15.08811394  1309,6917.968000000003,95.439,541.039,538.627,0.0
51973.0,STARLINK-3679,PAYLOAD,2022-06-25 14:00:01,15.08876545,0.0001605,53.2176,343.4345,55.5778,152.8293,-0.0031177,-0.00049614,0.0,0 STARLINK-3679,1 51973U 22025T   22176.58334491 -.00049614  00000-0 -31177-2 0  9998,2 51973  53.2176 343.4345 0001605  55.5778 152.8293 15.08876545  1309,6917.769,95.435,540.744,538.523,0.0
51973.0,STARLINK-3679,PAYLOAD,2022-06-25 16:00:00,15.08874646,0.0001635,53.2175,343.0608,52.4116,248.9016,-0.0038983,-0.00061856,0.0,0 STARLINK-3679,1 51973U 22025T   22176.66667824 -.00061856  00000-0 -38983-2 0  9990,2 51973  53.2175 343.0608 0001635  52.4116 248.9016 15.08874646 18039,6917.774,95.435,540.771,538.508,0.0
